OBJECT_NAME,OBJECT_ID,EPOCH,MEAN_MOTION,ECCENTRICITY,INCLINATION,RA_OF_ASC_NODE,ARG_OF_PERICENTER,MEAN_ANOMALY,EPHEMERIS_TYPE,CLASSIFICATION_TYPE,NORAD_CAT_ID,ELEMENT_SET_NO,REV_AT_EPOCH,BSTAR,MEAN_MOTION_DOT,MEAN_MOTION_DDOT
FLORIPASAT-1,2019-093G,2026-07-16T13:33:38.527200,15.04147688,.00107683,97.7924,292.0174,336.3507,23.7223,0,U,44885,999,35706,.17897692E-3,.2421E-4,0
SHUNTIAN,2019-093H,2026-07-16T15:40:40.455264,14.95282371,.00107892,97.8011,285.6654,333.0440,27.0219,0,U,44886,999,35658,.14759468E-3,.1568E-4,0
ELEKTRO-L 3,2019-095A,2026-07-16T13:40:56.374752,1.00271305,.00012523,0.3306,82.2852,18.3035,115.0303,0,U,44903,999,2400,0,-.107E-5,0
GONETS-M 14,2019-096A,2026-07-16T16:07:00.438240,12.42871426,.00144202,82.5218,66.3597,87.4255,272.8475,0,U,44905,999,29734,.12065499E-2,.177E-5,0
GONETS-M 15,2019-096B,2026-07-16T14:53:18.028320,12.42883820,.00161182,82.5238,66.8576,109.2727,251.0098,0,U,44906,999,29730,.13802131E-2,.201E-5,0
GONETS-M 16,2019-096C,2026-07-16T15:30:26.947872,12.42892985,.00110522,82.5183,65.7799,148.1879,211.9870,0,U,44907,999,29729,.98181651E-3,.146E-5,0
RS-44 & BREEZE-KM R/B,2019-096E,2026-07-16T09:37:33.603168,12.79748917,.02185255,82.5242,320.2932,76.1855,286.3458,0,U,44909,999,30608,.2525832E-5,.14E-6,0
JILIN-1 KUANFU 01,2020-003A,2026-07-16T15:01:49.015200,15.10871702,.00093922,97.5021,271.0079,191.6587,168.4427,0,U,45016,999,35977,.98227682E-4,.1572E-4,0
XINGYUN-2 01,2020-028A,2026-07-16T14:16:06.278304,15.11917092,.00108371,97.4870,189.4156,99.9775,260.2679,0,U,45602,999,33928,.71981728E-4,.117E-4,0
XINGYUN-2 02,2020-028B,2026-07-16T13:52:56.619840,15.11638829,.00112367,97.5066,203.0554,160.9797,199.1855,0,U,45603,999,33927,.25021626E-4,.362E-5,0
HAIYANG-1D,2020-036A,2026-07-16T14:58:21.338976,14.34181153,.00040082,98.4562,138.6649,67.9883,292.1727,0,U,45721,999,31919,-.47531012E-4,-.176E-5,0
M2 PATHFINDER,2020-037E,2026-07-16T12:08:02.629536,15.04793454,.0012797,97.8141,29.0690,58.4757,301.7717,0,U,45727,999,32990,.4860448E-4,.622E-5,0
GAOFEN DUOMO (GFDM),2020-042A,2026-07-16T14:40:23.975040,14.76805410,.00106599,97.7731,256.4252,348.7092,11.3877,0,U,45856,999,32535,.11983011E-3,.792E-5,0
ZIYUAN 3-03 (ZY 3-03),2020-051A,2026-07-16T15:37:38.820000,15.21205958,.00028463,97.5368,264.6701,240.7272,119.3680,0,U,45939,999,33182,.25177049E-4,.491E-5,0
NEMO-HD,2020-061F,2026-07-16T14:25:32.633760,15.45156699,.00009962,97.1900,259.2657,101.6119,258.5242,0,U,46277,999,32652,.13528683E-3,.6324E-4,0
NAPA-1,2020-061BA,2026-07-16T14:35:23.412768,15.72117672,.00025486,97.2434,272.8405,173.1028,187.0271,0,U,46320,999,32635,.42333907E-3,.55633E-3,0
JILIN-1 GAOFEN 3E,2020-065D,2026-07-16T14:59:32.812512,15.67369010,.0010034,97.2205,250.9895,67.7926,292.4398,0,U,46457,999,32436,.45918424E-3,.49708E-3,0
JILIN-1 GAOFEN 3F,2020-065E,2026-07-16T13:52:45.750720,15.64057446,.00112803,97.2164,248.1248,53.4263,306.8033,0,U,46458,999,32429,.41756257E-3,.39578E-3,0
JILIN-1 GAOFEN 3G,2020-065F,2026-07-16T13:55:12.686016,15.77166977,.00055532,97.2220,255.4785,267.3441,92.7190,0,U,46459,999,32456,.54233643E-3,.89046E-3,0
JILIN-1 GAOFEN 3H,2020-065G,2026-07-16T15:03:46.402560,15.72456144,.00065501,97.2166,251.6515,197.6899,162.4138,0,U,46460,999,32450,.49656656E-3,.66367E-3,0
HAIYANG-2C,2020-066A,2026-07-16T14:09:12.828384,13.83372792,.00075358,65.9970,142.0789,237.1690,122.8653,0,U,46469,999,29356,.10340204E-4,-.7E-6,0
HJ-2A,2020-067A,2026-07-16T15:27:21.030624,14.76550369,.00042757,97.8826,275.3188,151.3119,208.8327,0,U,46478,999,31260,.86958328E-4,.557E-5,0
HJ-2B,2020-067B,2026-07-16T14:42:24.631776,14.76512711,.00019986,97.8891,276.3339,103.9008,256.2425,0,U,46479,999,31260,.84406211E-4,.538E-5,0
GONETS-M 17,2020-068A,2026-07-16T14:11:11.822784,12.42873583,.00217715,82.5015,329.2093,333.4861,26.5104,0,U,46486,999,26281,-.53207025E-3,-.64E-6,0
GONETS-M 18,2020-068B,2026-07-16T13:18:50.768928,12.42874548,.00190084,82.4969,328.3386,330.1128,29.8864,0,U,46487,999,26279,-.51214932E-3,-.61E-6,0
GONETS-M 19,2020-068C,2026-07-16T14:38:46.294656,12.42892318,.0012993,82.4994,328.7599,346.9003,13.1737,0,U,46488,999,26290,-.73002217E-3,-.91E-6,0
DEKART,2020-068H,2026-07-16T14:53:48.147360,15.37969158,.00094107,97.8738,209.0129,168.0952,192.0516,0,U,46493,999,32029,.18257136E-3,.6734E-4,0
