FLORIPASAT-1            
1 44885U 19093G   26197.56502925  .00002421  00000+0  17898-3 0  9994
2 44885  97.7924 292.0174 0010768 336.3507  23.7223 15.04147688357067
SHUNTIAN                
1 44886U 19093H   26197.65324601  .00001568  00000+0  14759-3 0  9992
2 44886  97.8011 285.6654 0010789 333.0440  27.0219 14.95282371356586
ELEKTRO-L 3             
1 44903U 19095A   26197.57009693 -.00000107  00000+0  00000+0 0  9995
2 44903   0.3306  82.2852 0001252  18.3035 115.0303  1.00271305 24009
GONETS-M 14             
1 44905U 19096A   26197.67153285  .00000177  00000+0  12065-2 0  9999
2 44905  82.5218  66.3597 0014420  87.4255 272.8475 12.42871426297345
GONETS-M 15             
1 44906U 19096B   26197.62034755  .00000201  00000+0  13802-2 0  9993
2 44906  82.5238  66.8576 0016118 109.2727 251.0098 12.42883820297300
GONETS-M 16             
1 44907U 19096C   26197.64614523  .00000146  00000+0  98182-3 0  9996
2 44907  82.5183  65.7799 0011052 148.1879 211.9870 12.42892985297290
RS-44 & BREEZE-KM R/B   
1 44909U 19096E   26197.40108337  .00000014  00000+0  25258-5 0  9993
2 44909  82.5242 320.2932 0218525  76.1855 286.3458 12.79748917306085
JILIN-1 KUANFU 01       
1 45016U 20003A   26197.62626175  .00001572  00000+0  98228-4 0  9998
2 45016  97.5021 271.0079 0009392 191.6587 168.4427 15.10871702359773
XINGYUN-2 01            
1 45602U 20028A   26197.59451711  .00001170  00000+0  71982-4 0  9996
2 45602  97.4870 189.4156 0010837  99.9775 260.2679 15.11917092339286
XINGYUN-2 02            
1 45603U 20028B   26197.57843310  .00000362  00000+0  25022-4 0  9991
2 45603  97.5066 203.0554 0011236 160.9797 199.1855 15.11638829339270
HAIYANG-1D              
1 45721U 20036A   26197.62385809 -.00000176  00000+0 -47531-4 0  9995
2 45721  98.4562 138.6649 0004008  67.9883 292.1727 14.34181153319199
M2 PATHFINDER           
1 45727U 20037E   26197.50558599  .00000622  00000+0  48604-4 0  9993
2 45727  97.8141  29.0690 0012797  58.4757 301.7717 15.04793454329906
GAOFEN DUOMO (GFDM)     
1 45856U 20042A   26197.61138860  .00000792  00000+0  11983-3 0  9996
2 45856  97.7731 256.4252 0010659 348.7092  11.3877 14.76805410325355
ZIYUAN 3-03 (ZY 3-03)   
1 45939U 20051A   26197.65114375  .00000491  00000+0  25177-4 0  9994
2 45939  97.5368 264.6701 0002846 240.7272 119.3680 15.21205958331823
NEMO-HD                 
1 46277U 20061F   26197.60107215  .00006324  00000+0  13529-3 0  9999
2 46277  97.1900 259.2657 0000996 101.6119 258.5242 15.45156699326520
NAPA-1                  
1 46320U 20061BA  26197.60790987  .00055633  00000+0  42334-3 0  9995
2 46320  97.2434 272.8405 0002548 173.1028 187.0271 15.72117672326359
JILIN-1 GAOFEN 3E       
1 46457U 20065D   26197.62468533  .00049708  00000+0  45918-3 0  9998
2 46457  97.2205 250.9895 0010034  67.7926 292.4398 15.67369010324369
JILIN-1 GAOFEN 3F       
1 46458U 20065E   26197.57830730  .00039578  00000+0  41756-3 0  9995
2 46458  97.2164 248.1248 0011280  53.4263 306.8033 15.64057446324297
JILIN-1 GAOFEN 3G       
1 46459U 20065F   26197.58000794  .00089046  00000+0  54234-3 0  9996
2 46459  97.2220 255.4785 0005553 267.3441  92.7190 15.77166977324567
JILIN-1 GAOFEN 3H       
1 46460U 20065G   26197.62762040  .00066367  00000+0  49657-3 0  9996
2 46460  97.2166 251.6515 0006550 197.6899 162.4138 15.72456144324501
HAIYANG-2C              
1 46469U 20066A   26197.58973181 -.00000070  00000+0  10340-4 0  9999
2 46469  65.9970 142.0789 0007535 237.1690 122.8653 13.83372792293563
HJ-2A                   
1 46478U 20067A   26197.64399341  .00000557  00000+0  86958-4 0  9994
2 46478  97.8826 275.3188 0004275 151.3119 208.8327 14.76550369312602
HJ-2B                   
1 46479U 20067B   26197.61278509  .00000538  00000+0  84406-4 0  9999
2 46479  97.8891 276.3339 0001998 103.9008 256.2425 14.76512711312608
GONETS-M 17             
1 46486U 20068A   26197.59110906 -.00000064  00000+0 -53207-3 0  9991
2 46486  82.5015 329.2093 0021771 333.4861  26.5104 12.42873583262815
GONETS-M 18             
1 46487U 20068B   26197.55475427 -.00000061  00000+0 -51215-3 0  9994
2 46487  82.4969 328.3386 0019008 330.1128  29.8864 12.42874548262796
GONETS-M 19             
1 46488U 20068C   26197.61025804 -.00000091  00000+0 -73002-3 0  9993
2 46488  82.4994 328.7599 0012993 346.9003  13.1737 12.42892318262901
DEKART                  
1 46493U 20068H   26197.62069615  .00006734  00000+0  18257-3 0  9997
2 46493  97.8738 209.0129 0009410 168.0952 192.0516 15.37969158320292
